<?xml version="1.0" encoding="UTF-8"?>
<kml xmlns="http://www.opengis.net/kml/2.2">
<Document>
  <name>Área de ejemplo — Corumbá</name>
  <Placemark>
    <name>AOI Corumbá</name>
    <Polygon>
      <outerBoundaryIs>
        <LinearRing>
          <coordinates>
            -57.80,-19.25,0
            -57.40,-19.25,0
            -57.40,-18.85,0
            -57.80,-18.85,0
            -57.80,-19.25,0
          </coordinates>
        </LinearRing>
      </outerBoundaryIs>
    </Polygon>
  </Placemark>
</Document>
</kml>
