<?xml version="1.0" encoding="UTF-8"?>
<kml xmlns="http://www.opengis.net/kml/2.2">
<Document>
  <name>Área de ejemplo — Santiago</name>
  <Placemark>
    <name>AOI Santiago</name>
    <Polygon>
      <outerBoundaryIs>
        <LinearRing>
          <coordinates>
            -70.90,-33.65,0
            -70.45,-33.65,0
            -70.45,-33.25,0
            -70.90,-33.25,0
            -70.90,-33.65,0
          </coordinates>
        </LinearRing>
      </outerBoundaryIs>
    </Polygon>
  </Placemark>
</Document>
</kml>
