<?xml version="1.0" encoding="UTF-8"?>
<kml xmlns="http://www.opengis.net/kml/2.2">
<Document>
  <name>Área de ejemplo — Cochabamba</name>
  <Placemark>
    <name>AOI Cochabamba</name>
    <Polygon>
      <outerBoundaryIs>
        <LinearRing>
          <coordinates>
            -66.50,-17.70,0
            -65.90,-17.70,0
            -65.90,-17.15,0
            -66.50,-17.15,0
            -66.50,-17.70,0
          </coordinates>
        </LinearRing>
      </outerBoundaryIs>
    </Polygon>
  </Placemark>
</Document>
</kml>
